NORAD_CAT_ID,OBJECT_NAME,OBJECT_TYPE,EPOCH,MEAN_MOTION,ECCENTRICITY,INCLINATION,RA_OF_ASC_NODE,ARG_OF_PERICENTER,MEAN_ANOMALY,BSTAR,MEAN_MOTION_DOT,MEAN_MOTION_DDOT,TLE_LINE0,TLE_LINE1,TLE_LINE2,SEMIMAJOR_AXIS,PERIOD,APOGEE,PERIGEE,DECAYED
51104.0,STARLINK-3366,PAYLOAD,2023-05-30 01:46:43,15.08834526,0.0001076,53.2155,163.9046,100.4244,259.687,4.1358e-05,3.7e-06,0.0,0 STARLINK-3366,1 51104U 22005A   23150.07411066  .00000370  00000-0  41358-4 0  9991,2 51104  53.2155 163.9046 0001076 100.4244 259.6870 15.08834526 76824,6917.897,95.438,540.506,539.018,0.0
51104.0,STARLINK-3366,PAYLOAD,2023-05-30 06:32:52,15.08833842,0.0001034,53.2156,163.013,94.8843,265.2267,3.0536e-05,1.98e-06,0.0,0 STARLINK-3366,1 51104U 22005A   23150.27283220  .00000198  00000-0  30536-4 0  9996,2 51104  53.2156 163.0130 0001034  94.8843 265.2267 15.08833842 75737,6917.899,95.438,540.48,539.049,0.0
51104.0,STARLINK-3366,PAYLOAD,2023-05-31 09:34:25,15.08840018,0.0001014,53.2157,157.9577,90.4656,269.6453,5.4364e-05,5.78e-06,0.0,0 STARLINK-3366,1 51104U 22005A   23151.39891011  .00000578  00000-0  54364-4 0  9990,2 51104  53.2157 157.9577 0001014  90.4656 269.6453 15.08840018 77029,6917.88,95.438,540.447,539.044,0.0
51104.0,STARLINK-3366,PAYLOAD,2023-05-31 17:31:21,15.08839703,9.97e-05,53.2156,156.4703,85.5245,274.5861,7.6702e-05,9.33e-06,0.0,0 STARLINK-3366,1 51104U 22005A   23151.73010999  .00000933  00000-0  76702-4 0  9991,2 51104  53.2156 156.4703 0000997  85.5245 274.5861 15.08839703 75958,6917.881,95.438,540.436,539.057,0.0
51104.0,STARLINK-3366,PAYLOAD,2023-06-01 07:49:49,15.08842133,0.0001013,53.2157,153.7948,83.9922,276.1186,0.0001174,1.581e-05,0.0,0 STARLINK-3366,1 51104U 22005A   23152.32626809  .00001581  00000-0  11740-3 0  9990,2 51104  53.2157 153.7948 0001013  83.9922 276.1186 15.08842133 76044,6917.874,95.437,540.44,539.038,0.0
51104.0,STARLINK-3366,PAYLOAD,2023-06-01 23:43:41,15.08840866,0.0001042,53.2158,150.8213,83.9522,276.1589,5.6831e-05,6.17e-06,0.0,0 STARLINK-3366,1 51104U 22005A   23152.98867054  .00000617  00000-0  56831-4 0  9991,2 51104  53.2158 150.8213 0001042  83.9522 276.1589 15.08840866 77269,6917.878,95.437,540.464,539.022,0.0
51104.0,STARLINK-3366,PAYLOAD,2023-06-02 06:05:13,15.08841788,0.0001046,53.2158,149.6318,83.905,276.2061,5.9077e-05,6.53e-06,0.0,0 STARLINK-3366,1 51104U 22005A   23153.25362956  .00000653  00000-0  59077-4 0  9998,2 51104  53.2158 149.6318 0001046  83.9050 276.2061 15.08841788 76181,6917.875,95.437,540.464,539.016,0.0
51104.0,STARLINK-3366,PAYLOAD,2023-06-02 17:12:55,15.08841537,0.0001046,53.2158,147.5504,83.2528,276.8583,4.6042e-05,4.45e-06,0.0,0 STARLINK-3366,1 51104U 22005A   23153.71731007  .00000445  00000-0  46042-4 0  9993,2 51104  53.2158 147.5504 0001046  83.2528 276.8583 15.08841537 76253,6917.876,95.437,540.464,539.017,0.0
51104.0,STARLINK-3366,PAYLOAD,2023-06-03 02:45:14,15.08840629,0.0001056,53.2158,145.7661,83.1745,276.9367,2.6387e-05,1.32e-06,0.0,0 STARLINK-3366,1 51104U 22005A   23154.11475085  .00000132  00000-0  26387-4 0  9992,2 51104  53.2158 145.7661 0001056  83.1745 276.9367 15.08840629 77431,6917.878,95.438,540.474,539.013,0.0
51104.0,STARLINK-3366,PAYLOAD,2023-06-03 09:06:46,15.0884161,0.0001057,53.2158,144.5759,88.0575,272.0538,3.3951e-05,2.53e-06,0.0,0 STARLINK-3366,1 51104U 22005A   23154.37970970  .00000253  00000-0  33951-4 0  9992,2 51104  53.2158 144.5759 0001057  88.0575 272.0538 15.08841610 76350,6917.875,95.437,540.472,539.009,0.0
51104.0,STARLINK-3366,PAYLOAD,2023-06-04 08:57:34,15.08838689,0.0001073,53.2157,140.1155,87.4613,272.6502,4.0468e-05,3.56e-06,0.0,0 STARLINK-3366,1 51104U 22005A   23155.37331179  .00000356  00000-0  40468-4 0  9990,2 51104  53.2157 140.1155 0001073  87.4613 272.6502 15.08838689 77625,6917.884,95.438,540.492,539.007,0.0
51104.0,STARLINK-3366,PAYLOAD,2023-06-04 10:32:57,15.088391,0.000109,53.2158,139.8184,87.5366,272.5751,4.8404e-05,4.83e-06,0.0,0 STARLINK-3366,1 51104U 22005A   23155.43955114  .00000483  00000-0  48404-4 0  9997,2 51104  53.2158 139.8184 0001090  87.5366 272.5751 15.08839100 76519,6917.883,95.438,540.502,538.994,0.0
51104.0,STARLINK-3366,PAYLOAD,2023-06-05 10:23:43,15.08843423,0.0001125,53.216,135.3581,87.6891,272.423,8.3142e-05,1.036e-05,0.0,0 STARLINK-3366,1 51104U 22005A   23156.43314787  .00001036  00000-0  83142-4 0  9996,2 51104  53.2160 135.3581 0001125  87.6891 272.4230 15.08843423 76667,6917.87,95.437,540.513,538.957,0.0
51104.0,STARLINK-3366,PAYLOAD,2023-06-05 15:09:54,15.08830905,0.0001351,53.2159,134.466,85.3398,274.7748,-1.8624e-05,-5.84e-06,0.0,0 STARLINK-3366,1 51104U 22005A   23156.63187991 -.00000584  00000-0 -18624-4 0  9995,2 51104  53.2159 134.4660 0001351  85.3398 274.7748 15.08830905 76694,6917.908,95.438,540.708,538.839,0.0
51104.0,STARLINK-3366,PAYLOAD,2023-06-06 07:03:45,15.0883839,0.0001128,53.2161,131.4923,92.5847,267.5275,5.3985e-05,5.71e-06,0.0,0 STARLINK-3366,1 51104U 22005A   23157.29427512  .00000571  00000-0  53985-4 0  9997,2 51104  53.2161 131.4923 0001128  92.5847 267.5275 15.08838390 77914,6917.885,95.438,540.531,538.97,0.0
51104.0,STARLINK-3366,PAYLOAD,2023-06-07 06:54:32,15.08841094,0.0001093,53.2163,127.0324,94.3691,265.7426,5.1655e-05,5.34e-06,0.0,0 STARLINK-3366,1 51104U 22005A   23158.28787636  .00000534  00000-0  51655-4 0  9994,2 51104  53.2163 127.0324 0001093  94.3691 265.7426 15.08841094 76945,6917.877,95.437,540.498,538.986,0.0
51104.0,STARLINK-3366,PAYLOAD,2023-06-07 21:13:01,15.08833983,0.0001114,53.2164,124.3561,98.7674,261.3444,0.00011632,1.564e-05,0.0,0 STARLINK-3366,1 51104U 22005A   23158.88404102  .00001564  00000-0  11632-3 0  9998,2 51104  53.2164 124.3561 0001114  98.7674 261.3444 15.08833983 77033,6917.899,95.438,540.534,538.993,0.0
51104.0,STARLINK-3366,PAYLOAD,2023-06-08 06:45:19,15.08838476,0.0001093,53.2163,122.5716,94.7975,265.3142,8.2804e-05,1.03e-05,0.0,0 STARLINK-3366,1 51104U 22005A   23159.28148025  .00001030  00000-0  82804-4 0  9990,2 51104  53.2163 122.5716 0001093  94.7975 265.3142 15.08838476 77097,6917.885,95.438,540.506,538.994,0.0
51104.0,STARLINK-3366,PAYLOAD,2023-06-08 14:42:15,15.08836947,0.0001123,53.2167,121.0843,85.8908,274.2213,6.4947e-05,7.46e-06,0.0,0 STARLINK-3366,1 51104U 22005A   23159.61268264  .00000746  00000-0  64947-4 0  9996,2 51104  53.2167 121.0843 0001123  85.8908 274.2213 15.08836947 77142,6917.89,95.438,540.532,538.978,0.0
51104.0,STARLINK-3366,PAYLOAD,2023-06-09 05:00:43,15.08842869,0.000111,53.2168,118.4077,85.4166,274.6952,8.4499e-05,1.057e-05,0.0,0 STARLINK-3366,1 51104U 22005A   23160.20883943  .00001057  00000-0  84499-4 0  9990,2 51104  53.2168 118.4077 0001110  85.4166 274.6952 15.08842869 78358,6917.872,95.437,540.505,538.969,0.0
51104.0,STARLINK-3366,PAYLOAD,2023-06-09 20:54:35,15.0883871,0.0001192,53.2167,115.4357,80.4695,279.6432,8.2035e-05,1.018e-05,0.0,0 STARLINK-3366,1 51104U 22005A   23160.87124276  .00001018  00000-0  82035-4 0  9991,2 51104  53.2167 115.4357 0001192  80.4695 279.6432 15.08838710 77332,6917.884,95.438,540.574,538.925,0.0
51104.0,STARLINK-3366,PAYLOAD,2023-06-10 06:26:53,15.08842544,0.000121,53.2165,113.6517,79.9406,280.1723,0.00011049,1.471e-05,0.0,0 STARLINK-3366,1 51104U 22005A   23161.26867979  .00001471  00000-0  11049-3 0  9998,2 51104  53.2165 113.6517 0001210  79.9406 280.1723 15.08842544 77398,6917.873,95.437,540.575,538.901,0.0
51104.0,STARLINK-3366,PAYLOAD,2023-06-11 03:06:54,15.08839275,0.0001151,53.2164,109.784,90.2118,269.9006,0.00013722,1.897e-05,0.0,0 STARLINK-3366,1 51104U 22005A   23162.12980063  .00001897  00000-0  13722-3 0  9996,2 51104  53.2164 109.7840 0001151  90.2118 269.9006 15.08839275 78647,6917.883,95.438,540.544,538.951,0.0
51104.0,STARLINK-3366,PAYLOAD,2023-06-11 06:17:40,15.08844177,0.0001206,53.2165,109.1895,91.0349,269.0782,7.8139e-05,9.56e-06,0.0,0 STARLINK-3366,1 51104U 22005A   23162.26227831  .00000956  00000-0  78139-4 0  9997,2 51104  53.2165 109.1895 0001206  91.0349 269.0782 15.08844177 77545,6917.868,95.437,540.567,538.898,0.0
51104.0,STARLINK-3366,PAYLOAD,2023-06-11 20:36:09,15.08837367,0.0001272,53.2165,106.5117,99.8852,260.2284,1.8792e-05,1.1e-07,0.0,0 STARLINK-3366,1 51104U 22005A   23162.85844431  .00000011  00000-0  18792-4 0  9994,2 51104  53.2165 106.5117 0001272  99.8852 260.2284 15.08837367 77634,6917.888,95.438,540.633,538.873,0.0
51104.0,STARLINK-3366,PAYLOAD,2023-06-12 02:57:42,15.08837584,0.0001123,53.2158,105.3247,82.7903,277.3217,3.5956e-05,2.84e-06,0.0,0 STARLINK-3366,1 51104U 22005A   23163.12340368  .00000284  00000-0  35956-4 0  9998,2 51104  53.2158 105.3247 0001123  82.7903 277.3217 15.08837584 78794,6917.888,95.438,540.53,538.976,0.0
51104.0,STARLINK-3366,PAYLOAD,2023-06-13 02:48:29,15.08840493,0.000114,53.2168,100.8636,83.5661,276.546,-1.9795e-05,-6.03e-06,0.0,0 STARLINK-3366,1 51104U 22005A   23164.11700527 -.00000603  00000-0 -19795-4 0  9995,2 51104  53.2168 100.8636 0001140  83.5661 276.5460 15.08840493 77823,6917.879,95.438,540.533,538.955,0.0
51104.0,STARLINK-3366,PAYLOAD,2023-06-13 20:17:44,15.08834735,0.0001133,53.2172,97.5939,85.4912,274.621,6.1036e-05,6.84e-06,0.0,0 STARLINK-3366,1 51104U 22005A   23164.84564854  .00000684  00000-0  61036-4 0  9998,2 51104  53.2172  97.5939 0001133  85.4912 274.6210 15.08834735 77934,6917.896,95.438,540.545,538.978,0.0
51104.0,STARLINK-3366,PAYLOAD,2023-06-14 02:39:16,15.08837531,0.0001138,53.2172,96.4049,88.4065,271.7058,8.9769e-05,1.141e-05,0.0,0 STARLINK-3366,1 51104U 22005A   23165.11060655  .00001141  00000-0  89769-4 0  9991,2 51104  53.2172  96.4049 0001138  88.4065 271.7058 15.08837531 79095,6917.888,95.438,540.54,538.966,0.0
51104.0,STARLINK-3366,PAYLOAD,2023-06-14 04:14:39,15.08839864,0.0001141,53.2172,96.1068,83.5778,276.5344,9.5823e-05,1.238e-05,0.0,0 STARLINK-3366,1 51104U 22005A   23165.17684534  .00001238  00000-0  95823-4 0  9990,2 51104  53.2172  96.1068 0001141  83.5778 276.5344 15.08839864 77982,6917.881,95.438,540.535,538.956,0.0
